0 IRIDIUM 64
1 25287U 98021C   13281.99624907  .00000123  00000-0  36986-4 0  4307
2 25287 086.3952 067.0650 0001822 110.3092 249.8300 14.34215914811901
0 IRIDIUM 64
1 25287U 98021C   13283.46139235  .00000104  00000-0  29918-4 0  4313
2 25287 086.3952 066.4520 0001847 112.7776 247.3615 14.34214324812112
0 IRIDIUM 64
1 25287U 98021C   13284.43815402  .00000179  00000-0  56926-4 0  4320
2 25287 086.3957 066.0437 0001811 111.4718 248.6671 14.34215052812253
0 IRIDIUM 64
1 25287U 98021C   13285.48468363  .00000256  00000-0  84178-4 0  4333
2 25287 086.3959 065.6060 0001818 111.7812 248.3577 14.34216137812401
0 IRIDIUM 64
1 25287U 98021C   13286.46144407  .00000262  00000-0  86652-4 0  4349
2 25287 086.3962 065.1975 0001828 112.4901 247.6489 14.34216546812546
0 IRIDIUM 64
1 25287U 98021C   13287.43820415  .00000311  00000-0  10411-3 0  4352
2 25287 086.3965 064.7891 0001842 112.9842 247.1548 14.34217195812683
0 IRIDIUM 64
1 25287U 98021C   13288.48473214  .00000440  00000-0  15002-3 0  4364
2 25287 086.3967 064.3515 0001838 113.1328 247.0061 14.34218324812832
0 IRIDIUM 64
1 25287U 98021C   13289.46149108  .00000351  00000-0  11817-3 0  4377
2 25287 086.3969 063.9432 0001838 113.9240 246.2148 14.34219372812974
0 IRIDIUM 64
1 25287U 98021C   13290.43824927  .00000412  00000-0  14020-3 0  4383
2 25287 086.3970 063.5349 0001861 114.2875 245.8515 14.34219990813119
0 IRIDIUM 64
1 25287U 98021C   13291.41500693  .00000414  00000-0  14092-3 0  4395
2 25287 086.3971 063.1266 0001873 114.8138 245.3252 14.34220597813258
0 IRIDIUM 64
1 25287U 98021C   13291.97315391  .00000431  00000-0  14681-3 0  4400
2 25287 086.3971 062.8934 0001872 114.9373 245.2017 14.34220707813337
0 IRIDIUM 64
1 25287U 98021C   13292.81038021  .00000376  00000-0  12720-3 0  4417
2 25287 086.3972 062.5433 0001882 117.7201 242.4186 14.34211735813451
0 IRIDIUM 64
1 25287U 98021C   13293.43829958  .00000337  00000-0  11335-3 0  4422
2 25287 086.3972 062.2809 0001883 117.5580 242.5807 14.34212289813540
0 IRIDIUM 64
1 25287U 98021C   13294.41506259  .00000408  00000-0  13869-3 0  4431
2 25287 086.3972 061.8727 0001915 118.0298 242.1091 14.34213427813683
0 IRIDIUM 64
1 25287U 98021C   13295.46159352  .00000465  00000-0  15907-3 0  4444
2 25287 086.3972 061.4353 0001925 117.9914 242.1477 14.34214561813833
